PROGRESS-MS 21          
1 54155U 22140A   22325.70530266  .00009606  00000+0  17523-3 0  9993
2 54155  51.6438 276.2646 0007024  98.7292 323.8398 15.50125202369616
STARLINK-5290           
1 54157U 22141A   22325.91667824 -.01192869  00000+0 -18641-1 0  9997
2 54157  53.2174  21.2351 0001500  36.0188 310.9289 15.56159853  1306
STARLINK-5297           
1 54158U 22141B   22325.91667824 -.01188818  00000+0 -18648-1 0  9994
2 54158  53.2174  21.2441 0001472  33.8186 308.7449 15.56048879  1306
STARLINK-5294           
1 54159U 22141C   22325.91667824 -.01191407  00000+0 -18669-1 0  9996
2 54159  53.2175  21.2411 0001285  46.6201 297.3677 15.56085130  1304
STARLINK-5233           
1 54160U 22141D   22325.91667824  .00044234  00000+0  31777-3 0  9997
2 54160  53.2194  20.7728 0003093  16.2947 203.2856 15.73208199  1307
STARLINK-5269           
1 54161U 22141E   22325.91667824 -.01189744  00000+0 -18617-1 0  9993
2 54161  53.2174  21.2383 0001269  43.5638 301.8459 15.56118332  1306
STARLINK-5273           
1 54162U 22141F   22325.91667824 -.01210179  00000+0 -18907-1 0  9993
2 54162  53.2176  21.2328 0001478  36.4321 311.9869 15.56209988  1305
STARLINK-5161           
1 54163U 22141G   22325.91667824  .00047064  00000+0  33762-3 0  9990
2 54163  53.2190  20.8242 0003549   9.2514 185.8418 15.73212511  1308
STARLINK-5278           
1 54164U 22141H   22325.91667824  .00012800  00000+0  95360-4 0  9994
2 54164  53.2190  20.8250 0003251  10.6574 183.8678 15.73229696  1308
STARLINK-5279           
1 54165U 22141J   22325.91667824 -.01192231  00000+0 -18581-1 0  9992
2 54165  53.2175  21.2291 0001435  40.0932 309.7490 15.56230715  1305
STARLINK-5280           
1 54166U 22141K   22325.91667824  .00017916  00000+0  13166-3 0  9992
2 54166  53.2186  20.8202 0002927   9.7697 185.9984 15.73223720  1301
STARLINK-5243           
1 54167U 22141L   22325.91667824 -.01166207  00000+0 -18124-1 0  9991
2 54167  53.2190  21.2332 0001110  91.3127 259.9655 15.56243959  1308
STARLINK-5245           
1 54168U 22141M   22325.91667824 -.00062813  00000+0 -44514-3 0  9993
2 54168  53.2188  20.8192 0003172  11.6336 185.2841 15.73261162  1305
STARLINK-5282           
1 54169U 22141N   22325.91667824 -.00050355  00000+0 -35573-3 0  9997
2 54169  53.2187  20.8249 0003274   8.5058 185.4476 15.73241773  1309
STARLINK-5155           
1 54170U 22141P   22325.91667824  .00048078  00000+0  34480-3 0  9992
2 54170  53.2182  20.8201 0003343  14.1886 183.2940 15.73210137  1305
STARLINK-5229           
1 54171U 22141Q   22325.91667824 -.00060584  00000+0 -42932-3 0  9992
2 54171  53.2193  20.8267 0003057   6.8444 186.5048 15.73248559  1304
STARLINK-5117           
1 54172U 22141R   22325.91667824 -.00045129  00000+0 -31812-3 0  9996
2 54172  53.2184  20.8133 0003508   5.4495 193.2523 15.73242728  1304
STARLINK-5242           
1 54173U 22141S   22325.91667824 -.00064843  00000+0 -45997-3 0  9990
2 54173  53.2186  20.8195 0003184  13.3410 182.9944 15.73251516  3949
STARLINK-5248           
1 54174U 22141T   22325.91667824  .00026288  00000+0  19107-3 0  9994
2 54174  53.2170  20.0228 0002287  22.8825 200.2066 15.73207256  1309
STARLINK-5256           
1 54175U 22141U   22325.91667824  .00040373  00000+0  29054-3 0  9998
2 54175  53.2189  20.8161 0003418   7.4419 190.6948 15.73207764  3946
STARLINK-5154           
1 54176U 22141V   22325.91667824 -.00054598  00000+0 -38616-3 0  9999
2 54176  53.2181  20.8078 0003511  11.0876 190.0176 15.73247485  3949
STARLINK-5186           
1 54177U 22141W   22325.91667824  .00047336  00000+0  33984-3 0  9993
2 54177  53.2195  20.8151 0003255  11.3724 187.9998 15.73192417  1306
STARLINK-5164           
1 54178U 22141X   22325.91667824 -.00063160  00000+0 -44772-3 0  9996
2 54178  53.2181  20.8064 0003377  10.6234 191.0907 15.73256053  1301
STARLINK-5122           
1 54179U 22141Y   22325.91667824  .00048175  00000+0  34588-3 0  9998
2 54179  53.2187  20.8124 0002960   6.7385 193.1250 15.73184750  4171
STARLINK-5228           
1 54180U 22141Z   22325.91667824  .00015486  00000+0  11456-3 0  9998
2 54180  53.2182  20.8001 0003131  11.2907 193.4093 15.73197451  1306
STARLINK-5227           
1 54181U 22141AA  22325.91667824 -.00060140  00000+0 -42602-3 0  9995
2 54181  53.2185  20.8063 0003469  12.3616 189.9480 15.73251332  1300
STARLINK-5231           
1 54182U 22141AB  22325.91667824  .00046463  00000+0  33352-3 0  9998
2 54182  53.2172  20.7937 0003300   9.1928 197.8509 15.73203939  1300
STARLINK-5239           
1 54183U 22141AC  22325.91667824  .00045025  00000+0  32343-3 0  9991
2 54183  53.2191  20.8044 0003228  11.0114 193.0734 15.73201650  1306
STARLINK-5162           
1 54184U 22141AD  22325.91667824  .00041214  00000+0  29662-3 0  9998
2 54184  53.2170  20.7961 0003204   5.7950 199.5458 15.73196634  1302
STARLINK-5235           
1 54185U 22141AE  22325.91667824  .00046663  00000+0  33483-3 0  9998
2 54185  53.2185  20.8076 0003386  10.7016 192.7669 15.73210727  1306
STARLINK-5194           
1 54186U 22141AF  22325.91667824  .00055993  00000+0  40105-3 0  9994
2 54186  53.2175  20.7916 0003220  11.3049 196.8243 15.73176359  4171
STARLINK-5240           
1 54187U 22141AG  22325.91667824 -.00064193  00000+0 -45523-3 0  9998
2 54187  53.2189  20.8059 0003071  16.9284 185.9806 15.73254663  1303
STARLINK-5238           
1 54188U 22141AH  22325.91667824  .00037527  00000+0  27059-3 0  9992
2 54188  53.2159  20.7887 0003236   8.1310 199.5745 15.73197346  1302
STARLINK-5182           
1 54189U 22141AJ  22325.91667824 -.00099174  00000+0 -70870-3 0  9990
2 54189  53.2186  20.7989 0003516   5.1410 200.8270 15.73250311  1306
STARLINK-5281           
1 54190U 22141AK  22325.91667824 -.00064583  00000+0 -45825-3 0  9990
2 54190  53.2177  20.7909 0003061  15.1776 193.6842 15.73244112  4175
STARLINK-4619           
1 54191U 22141AL  22325.91667824 -.00060475  00000+0 -42848-3 0  9999
2 54191  53.2179  20.7958 0003397   6.2616 200.2250 15.73249379  1308
STARLINK-5268           
1 54192U 22141AM  22325.91667824  .00042799  00000+0  30757-3 0  9993
2 54192  53.2185  20.7816 0003414  12.7624 201.4171 15.73213504  1306
STARLINK-5263           
1 54193U 22141AN  22325.91667824  .00025686  00000+0  18644-3 0  9991
2 54193  53.2178  20.7893 0003463  16.7399 193.1820 15.73250939  1302
STARLINK-5271           
1 54194U 22141AP  22325.91667824 -.00052832  00000+0 -37339-3 0  9999
2 54194  53.2185  20.7872 0003283  12.1895 199.0563 15.73252470  1300
STARLINK-5258           
1 54195U 22141AQ  22325.91667824 -.00058340  00000+0 -41356-3 0  9994
2 54195  53.2186  20.7914 0002972  14.8427 194.7136 15.73225448  1306
STARLINK-5237           
1 54196U 22141AR  22325.91667824  .00051349  00000+0  36815-3 0  9999
2 54196  53.2182  20.7844 0002973  11.6577 200.7718 15.73190089  1303
STARLINK-5234           
1 54197U 22141AS  22325.91667824 -.00036416  00000+0 -25584-3 0  9991
2 54197  53.2191  20.7898 0003048  11.0316 199.6936 15.73222001  1300
STARLINK-5246           
1 54198U 22141AT  22325.91667824  .00029210  00000+0  21158-3 0  9997
2 54198  53.2183  20.7829 0002956  18.7630 194.2516 15.73223949  1303
STARLINK-5244           
1 54199U 22141AU  22325.91667824  .00015063  00000+0  11159-3 0  9999
2 54199  53.2187  20.7863 0003400  14.1478 197.7693 15.73190312  1302
STARLINK-5250           
1 54200U 22141AV  22325.91667824  .00046353  00000+0  33288-3 0  9995
2 54200  53.2156  20.7729 0003044  15.0840 199.7621 15.73195161  1309
STARLINK-5199           
1 54201U 22141AW  22325.91667824  .00043923  00000+0  31558-3 0  9994
2 54201  53.2178  20.7778 0003246  14.1783 201.2272 15.73207415  1305
STARLINK-5205           
1 54202U 22141AX  22325.91667824  .00019520  00000+0  14315-3 0  9993
2 54202  53.2172  20.7745 0002964  19.2721 196.7804 15.73202856  1301
STARLINK-5247           
1 54203U 22141AY  22325.91667824  .00049588  00000+0  35571-3 0  9998
2 54203  53.2174  20.7796 0002953   7.7147 205.9757 15.73192831  1303
STARLINK-5241           
1 54204U 22141AZ  22325.91667824 -.00070004  00000+0 -49718-3 0  9996
2 54204  53.2177  20.7715 0002990  10.1909 207.5996 15.73255411  1300
STARLINK-5249           
1 54205U 22141BA  22325.91667824 -.00055010  00000+0 -38901-3 0  9999
2 54205  53.2175  20.7741 0002996  16.5680 200.0367 15.73257493  1302
STARLINK-5264           
1 54206U 22141BB  22325.91667824  .00017161  00000+0  12634-3 0  9998
2 54206  53.2162  20.3414 0002476  28.2560  38.0442 15.73217890  1302
STARLINK-5262           
1 54207U 22141BC  22325.91667824  .00047039  00000+0  33742-3 0  9999
2 54207  53.2178  20.7740 0003071  12.3887 204.7435 15.73215772  1305
STARLINK-5255           
1 54208U 22141BD  22325.91667824  .00018499  00000+0  13593-3 0  9990
2 54208  53.2173  20.7696 0003159   7.5541 210.8855 15.73198000  1309
STARLINK-5259           
1 54209U 22141BE  22325.91667824 -.00047417  00000+0 -33466-3 0  9996
2 54209  53.2171  20.7680 0003463  14.1031 204.9275 15.73236579  1301
SHIYAN 20C (SY-20C)     
1 54214U 22142A   22325.88625790 -.00000136  00000+0  00000+0 0  9995
2 54214  59.9978 284.5120 0009925 296.8666  63.1353 14.27344609  3414
CZ-2D R/B               
1 54215U 22142B   22325.94358192 -.00000138  00000+0  00000+0 0  9994
2 54215  59.9060 283.3772 0024658 220.8677 139.0526 14.33512816  3437
CSS (MENGTIAN)          
1 54216U 22143A   22325.50000426  .00017008  00000+0  21774-3 0  9990
2 54216  41.4782 340.7631 0005753 287.2893 199.4266 15.58787929 89363
2022-145A               
1 54223U 22145A   22326.07233704 -.00000361  00000+0  00000+0 0  9990
2 54223  63.8413  91.2526 6991531 269.8866 294.0824  2.01038513   391
2022-145B               
1 54224U 22145B   22324.64926663  .00000548  00000+0  00000+0 0  9991
2 54224  63.8645  91.2662 6979290 270.0302  15.6022  2.02012961   361
